0 COSMOS 2251 DEB
1 34136U 93036LH  13281.70100677  .00001513  00000-0  27810-3 0  2850
2 34136 074.0278 007.2748 0118129 176.1146 307.7865 14.62166493247699
0 COSMOS 2251 DEB
1 34136U 93036LH  13283.18801475  .00001554  00000-0  28545-3 0  2860
2 34136 074.0277 004.4253 0118033 172.9040 215.0947 14.62179277247910
0 COSMOS 2251 DEB
1 34136U 93036LH  13285.67474980  .00001775  00000-0  32513-3 0  2880
2 34136 074.0286 359.6615 0118013 167.5025 344.9043 14.62184389248277
0 COSMOS 2251 DEB
1 34136U 93036LH  13287.15601184  .00001990  00000-0  36370-3 0  2898
2 34136 074.0286 356.8232 0117924 164.2874 222.0849 14.62189382248499
0 COSMOS 2251 DEB
1 34136U 93036LH  13288.18331381  .00002648  00000-0  48176-3 0  2901
2 34136 074.0284 354.8546 0117839 162.0606 229.6852 14.62196816248641
0 COSMOS 2251 DEB
1 34136U 93036LH  13289.64367230  .00002240  00000-0  40862-3 0  2918
2 34136 074.0280 352.0562 0117740 158.8894 356.8963 14.62201939248850
0 COSMOS 2251 DEB
1 34136U 93036LH  13291.12432124  .00001887  00000-0  34518-3 0  2927
2 34136 074.0275 349.2188 0117660 155.6611 230.9570 14.62208082249076
0 COSMOS 2251 DEB
1 34136U 93036LH  13292.15159900  .00001782  00000-0  32624-3 0  2930
2 34136 074.0272 347.2499 0117583 153.4300 238.5047 14.62211297249223
0 COSMOS 2251 DEB
1 34136U 93036LH  13293.18338916  .00001915  00000-0  35021-3 0  2943
2 34136 074.0270 345.2723 0117523 151.1835 269.8257 14.62214144249371
0 COSMOS 2251 DEB
1 34136U 93036LH  13294.49366314  .00001450  00000-0  26676-3 0  2952
2 34136 074.0263 342.7588 0117356 148.2955 327.1241 14.62221412249566
0 COSMOS 2251 DEB
1 34136U 93036LH  13295.58940905  .00001615  00000-0  29631-3 0  2965
2 34136 074.0263 340.6587 0117299 145.9066 335.1417 14.62223986249725
